{
  "norad_id": 53832,
  "name": "STARLINK-4747",
  "history": [
    {
      "epoch": "2026-04-17T18:18:19.056384Z",
      "apogee_km": 540.5403514309965,
      "perigee_km": 538.9907412606162,
      "latitude_deg": 9.078850605313904e-06,
      "longitude_deg": 7.993591157849644,
      "height_km": 540.4577299906555,
      "semi_major_axis_km": 6917.9025463458065,
      "eccentricity": 0.000112,
      "inclination_deg": 53.2165,
      "raan_deg": 128.4644,
      "arg_perigee_deg": 74.7492,
      "mean_anomaly_deg": 285.3624,
      "mean_motion_rev_day": 15.08832751
    },
    {
      "epoch": "2026-04-18T18:09:06.365088Z",
      "apogee_km": 540.5408237258644,
      "perigee_km": 538.9842963248584,
      "latitude_deg": 3.521097522217069e-05,
      "longitude_deg": 4.856751342570044,
      "height_km": 540.4803748504885,
      "semi_major_axis_km": 6917.899560025361,
      "eccentricity": 0.0001125,
      "inclination_deg": 53.2164,
      "raan_deg": 124.004,
      "arg_perigee_deg": 76.7678,
      "mean_anomaly_deg": 283.344,
      "mean_motion_rev_day": 15.08833728
    },
    {
      "epoch": "2026-04-19T17:59:53.414592Z",
      "apogee_km": 540.5564533146562,
      "perigee_km": 538.9501191901882,
      "latitude_deg": 3.409649380581438e-05,
      "longitude_deg": 1.7209730111293715,
      "height_km": 540.465203452183,
      "semi_major_axis_km": 6917.890286252422,
      "eccentricity": 0.0001161,
      "inclination_deg": 53.2169,
      "raan_deg": 119.5436,
      "arg_perigee_deg": 76.7528,
      "mean_anomaly_deg": 283.3594,
      "mean_motion_rev_day": 15.08836762
    },
    {
      "epoch": "2026-04-20T06:42:58.487040Z",
      "apogee_km": 540.5263994698689,
      "perigee_km": 538.9767924243779,
      "latitude_deg": 4.377484752092517e-05,
      "longitude_deg": 168.0483312662331,
      "height_km": 540.4821400958718,
      "semi_major_axis_km": 6917.888595947124,
      "eccentricity": 0.000112,
      "inclination_deg": 53.2162,
      "raan_deg": 117.1644,
      "arg_perigee_deg": 77.6745,
      "mean_anomaly_deg": 282.4373,
      "mean_motion_rev_day": 15.08837315
    },
    {
      "epoch": "2026-04-21T06:33:45.154656Z",
      "apogee_km": 540.5213866952608,
      "perigee_km": 538.9423139514847,
      "latitude_deg": 3.12261457780364e-07,
      "longitude_deg": 164.91431564029745,
      "height_km": 540.4374081536486,
      "semi_major_axis_km": 6917.8688503233725,
      "eccentricity": 0.00011413,
      "inclination_deg": 53.2165,
      "raan_deg": 112.7042,
      "arg_perigee_deg": 76.0451,
      "mean_anomaly_deg": 284.0668,
      "mean_motion_rev_day": 15.08843775
    },
    {
      "epoch": "2026-04-22T00:02:59.810496Z",
      "apogee_km": 540.5524667090249,
      "perigee_km": 538.9281491171268,
      "latitude_deg": -4.615810209649856e-06,
      "longitude_deg": -101.3861381106368,
      "height_km": 540.4270649146563,
      "semi_major_axis_km": 6917.877307913076,
      "eccentricity": 0.0001174,
      "inclination_deg": 53.2163,
      "raan_deg": 109.433,
      "arg_perigee_deg": 75.0771,
      "mean_anomaly_deg": 285.0351,
      "mean_motion_rev_day": 15.08841008
    },
    {
      "epoch": "2026-04-23T06:15:21.648672Z",
      "apogee_km": 540.5953059961721,
      "perigee_km": 539.0081924883207,
      "latitude_deg": 4.123356615393256e-06,
      "longitude_deg": 158.63165404212535,
      "height_km": 540.5748672951889,
      "semi_major_axis_km": 6917.938749242246,
      "eccentricity": 0.00011471,
      "inclination_deg": 53.2169,
      "raan_deg": 103.7823,
      "arg_perigee_deg": 81.095,
      "mean_anomaly_deg": 279.0172,
      "mean_motion_rev_day": 15.08820907
    },
    {
      "epoch": "2026-04-24T07:41:31.453152Z",
      "apogee_km": 540.7096431417067,
      "perigee_km": 538.8418067059774,
      "latitude_deg": 3.0384126312152096e-05,
      "longitude_deg": 131.28769823189748,
      "height_km": 540.3094346818917,
      "semi_major_axis_km": 6917.912724923842,
      "eccentricity": 0.000135,
      "inclination_deg": 53.2166,
      "raan_deg": 99.0238,
      "arg_perigee_deg": 67.1893,
      "mean_anomaly_deg": 292.9242,
      "mean_motion_rev_day": 15.08829421
    },
    {
      "epoch": "2026-04-25T15:29:15.806112Z",
      "apogee_km": 541.5212206780307,
      "perigee_km": 538.1715331269343,
      "latitude_deg": 3.510103787647938e-05,
      "longitude_deg": 7.098795995199514,
      "height_km": 540.3207839108738,
      "semi_major_axis_km": 6917.983376902483,
      "eccentricity": 0.0002421,
      "inclination_deg": 53.2167,
      "raan_deg": 93.0755,
      "arg_perigee_deg": 75.4846,
      "mean_anomaly_deg": 284.6415,
      "mean_motion_rev_day": 15.08806307
    },
    {
      "epoch": "2026-04-26T15:20:00.631680Z",
      "apogee_km": 540.7788925120794,
      "perigee_km": 538.6421077762361,
      "latitude_deg": 3.059086007234278e-05,
      "longitude_deg": 3.972308188786911,
      "height_km": 540.300100994606,
      "semi_major_axis_km": 6917.8475001441575,
      "eccentricity": 0.00015444,
      "inclination_deg": 53.2174,
      "raan_deg": 88.6151,
      "arg_perigee_deg": 73.3599,
      "mean_anomaly_deg": 286.7563,
      "mean_motion_rev_day": 15.0885076
    },
    {
      "epoch": "2026-04-27T15:10:47.301024Z",
      "apogee_km": 540.769102221685,
      "perigee_km": 538.6660744268347,
      "latitude_deg": 3.463457820052165e-06,
      "longitude_deg": 0.8395005190521033,
      "height_km": 540.3812012027871,
      "semi_major_axis_km": 6917.85458832426,
      "eccentricity": 0.000152,
      "inclination_deg": 53.2166,
      "raan_deg": 84.1561,
      "arg_perigee_deg": 77.2624,
      "mean_anomaly_deg": 282.8538,
      "mean_motion_rev_day": 15.08848441
    },
    {
      "epoch": "2026-04-28T15:01:34.219200Z",
      "apogee_km": 540.8043904152491,
      "perigee_km": 538.6529341942733,
      "latitude_deg": 5.30328133508137e-05,
      "longitude_deg": -2.2961897371660425,
      "height_km": 540.5135987017651,
      "semi_major_axis_km": 6917.865662304761,
      "eccentricity": 0.0001555,
      "inclination_deg": 53.2165,
      "raan_deg": 79.6952,
      "arg_perigee_deg": 84.109,
      "mean_anomaly_deg": 276.008,
      "mean_motion_rev_day": 15.08844818
    },
    {
      "epoch": "2026-04-29T21:13:55.468992Z",
      "apogee_km": 540.9088972448526,
      "perigee_km": 538.6813231053766,
      "latitude_deg": -5.375376526398883e-06,
      "longitude_deg": -102.2750858207728,
      "height_km": 540.5078278484713,
      "semi_major_axis_km": 6917.932110175114,
      "eccentricity": 0.000161,
      "inclination_deg": 53.217,
      "raan_deg": 74.0454,
      "arg_perigee_deg": 80.5628,
      "mean_anomaly_deg": 279.5546,
      "mean_motion_rev_day": 15.08823079
    },
    {
      "epoch": "2026-04-30T00:24:38.990880Z",
      "apogee_km": 541.1690125046171,
      "perigee_km": 538.2056932648156,
      "latitude_deg": -6.317922005611091e-06,
      "longitude_deg": -150.6816745735767,
      "height_km": 541.2773202556555,
      "semi_major_axis_km": 6917.824352884716,
      "eccentricity": 0.00021418,
      "inclination_deg": 53.2174,
      "raan_deg": 73.4507,
      "arg_perigee_deg": 117.9748,
      "mean_anomaly_deg": 242.1461,
      "mean_motion_rev_day": 15.08858333
    },
    {
      "epoch": "2026-05-02T04:52:23.145024Z",
      "apogee_km": 540.6140192370858,
      "perigee_km": 538.784943271442,
      "latitude_deg": -2.015307182966443e-05,
      "longitude_deg": 130.41608861652233,
      "height_km": 540.532137781404,
      "semi_major_axis_km": 6917.836481254264,
      "eccentricity": 0.0001322,
      "inclination_deg": 53.2174,
      "raan_deg": 63.637,
      "arg_perigee_deg": 86.0426,
      "mean_anomaly_deg": 274.0717,
      "mean_motion_rev_day": 15.08854365
    }
  ]
}